[{"OBJECT_NAME":"PRAETORIAN SDA_617","OBJECT_ID":"2025-203R","EPOCH":"2026-01-30T19:14:04.857504","MEAN_MOTION":13.84958752,"ECCENTRICITY":0.00085782,"INCLINATION":81.3057,"RA_OF_ASC_NODE":137.9573,"ARG_OF_PERICENTER":196.2687,"MEAN_ANOMALY":163.8197,"EPHEMERIS_TYPE":0,"CLASSIFICATION_TYPE":"U","NORAD_CAT_ID":65580,"ELEMENT_SET_NO":999,"REV_AT_EPOCH":1969,"BSTAR":-0.0055398057,"MEAN_MOTION_DOT":-6.239e-5,"MEAN_MOTION_DDOT":0},{"OBJECT_NAME":"PRAETORIAN SDA_618","OBJECT_ID":"2025-203S","EPOCH":"2026-02-01T19:06:30.161952","MEAN_MOTION":13.85299909,"ECCENTRICITY":0.00100061,"INCLINATION":81.3042,"RA_OF_ASC_NODE":136.0179,"ARG_OF_PERICENTER":194.4717,"MEAN_ANOMALY":165.6155,"EPHEMERIS_TYPE":0,"CLASSIFICATION_TYPE":"U","NORAD_CAT_ID":65581,"ELEMENT_SET_NO":999,"REV_AT_EPOCH":1997,"BSTAR":7.2471117e-5,"MEAN_MOTION_DOT":9.4e-7,"MEAN_MOTION_DDOT":0},{"OBJECT_NAME":"PRAETORIAN SDA_619","OBJECT_ID":"2025-203T","EPOCH":"2026-02-01T18:07:52.224384","MEAN_MOTION":13.84982105,"ECCENTRICITY":0.00086385,"INCLINATION":81.3062,"RA_OF_ASC_NODE":136.1562,"ARG_OF_PERICENTER":191.1874,"MEAN_ANOMALY":168.9093,"EPHEMERIS_TYPE":0,"CLASSIFICATION_TYPE":"U","NORAD_CAT_ID":65582,"ELEMENT_SET_NO":999,"REV_AT_EPOCH":2059,"BSTAR":6.8856158e-5,"MEAN_MOTION_DOT":9.0e-7,"MEAN_MOTION_DDOT":0},{"OBJECT_NAME":"PRAETORIAN SDA_620","OBJECT_ID":"2025-203U","EPOCH":"2026-02-01T18:13:29.532576","MEAN_MOTION":13.84896975,"ECCENTRICITY":0.00083078,"INCLINATION":81.3052,"RA_OF_ASC_NODE":136.1414,"ARG_OF_PERICENTER":190.3743,"MEAN_ANOMALY":169.7244,"EPHEMERIS_TYPE":0,"CLASSIFICATION_TYPE":"U","NORAD_CAT_ID":65583,"ELEMENT_SET_NO":999,"REV_AT_EPOCH":1996,"BSTAR":8.1311699e-5,"MEAN_MOTION_DOT":1.04e-6,"MEAN_MOTION_DDOT":0},{"OBJECT_NAME":"PRAETORIAN SDA_621","OBJECT_ID":"2025-203V","EPOCH":"2026-01-31T17:38:47.968224","MEAN_MOTION":13.85041327,"ECCENTRICITY":0.00088444,"INCLINATION":81.304,"RA_OF_ASC_NODE":137.0512,"ARG_OF_PERICENTER":194.0592,"MEAN_ANOMALY":166.032,"EPHEMERIS_TYPE":0,"CLASSIFICATION_TYPE":"U","NORAD_CAT_ID":65584,"ELEMENT_SET_NO":999,"REV_AT_EPOCH":1982,"BSTAR":5.1545365e-5,"MEAN_MOTION_DOT":7.0e-7,"MEAN_MOTION_DDOT":0},{"OBJECT_NAME":"PRAETORIAN SDA_601","OBJECT_ID":"2025-203W","EPOCH":"2026-02-01T05:47:04.868448","MEAN_MOTION":13.8424885,"ECCENTRICITY":0.00056453,"INCLINATION":81.3056,"RA_OF_ASC_NODE":136.7646,"ARG_OF_PERICENTER":202.25,"MEAN_ANOMALY":157.8413,"EPHEMERIS_TYPE":0,"CLASSIFICATION_TYPE":"U","NORAD_CAT_ID":65585,"ELEMENT_SET_NO":999,"REV_AT_EPOCH":1988,"BSTAR":0.00073363693,"MEAN_MOTION_DOT":8.3e-6,"MEAN_MOTION_DDOT":0}]
