PRAETORIAN SDA_617      
1 65580U 25203R   26030.80144511 -.00006239  00000+0 -55398-2 0  9994
2 65580  81.3057 137.9573 0008578 196.2687 163.8197 13.84958752 19694
PRAETORIAN SDA_618      
1 65581U 25203S   26032.79618243  .00000094  00000+0  72471-4 0  9997
2 65581  81.3042 136.0179 0010006 194.4717 165.6155 13.85299909 19972
PRAETORIAN SDA_619      
1 65582U 25203T   26032.75546556  .00000090  00000+0  68856-4 0  9999
2 65582  81.3062 136.1562 0008638 191.1874 168.9093 13.84982105 20591
PRAETORIAN SDA_620      
1 65583U 25203U   26032.75936959  .00000104  00000+0  81312-4 0  9998
2 65583  81.3052 136.1414 0008307 190.3743 169.7244 13.84896975 19961
PRAETORIAN SDA_621      
1 65584U 25203V   26031.73527741  .00000070  00000+0  51545-4 0  9998
2 65584  81.3040 137.0512 0008844 194.0592 166.0320 13.85041327 19821
PRAETORIAN SDA_601      
1 65585U 25203W   26032.24102857  .00000830  00000+0  73364-3 0  9999
2 65585  81.3056 136.7646 0005645 202.2500 157.8413 13.84248850 19886
